{
  "norad_id": 53137,
  "name": "STARLINK-4145",
  "history": [
    {
      "epoch": "2026-03-28T06:49:36.135264Z",
      "apogee_km": 540.4212654810881,
      "perigee_km": 539.1373002189912,
      "latitude_deg": -6.244958151100937e-06,
      "longitude_deg": 162.536333289393,
      "height_km": 540.8369504415462,
      "semi_major_axis_km": 6917.916282850039,
      "eccentricity": 9.28e-05,
      "inclination_deg": 53.2164,
      "raan_deg": 90.644,
      "arg_perigee_deg": 104.5654,
      "mean_anomaly_deg": 255.5441,
      "mean_motion_rev_day": 15.08828257
    },
    {
      "epoch": "2026-03-29T05:05:00.133440Z",
      "apogee_km": 540.3614483728015,
      "perigee_km": 539.1632682039462,
      "latitude_deg": 4.9147666929386624e-05,
      "longitude_deg": -176.39026689492397,
      "height_km": 540.7428842265294,
      "semi_major_axis_km": 6917.899358288374,
      "eccentricity": 8.66e-05,
      "inclination_deg": 53.2166,
      "raan_deg": 86.4814,
      "arg_perigee_deg": 98.083,
      "mean_anomaly_deg": 262.0261,
      "mean_motion_rev_day": 15.08833794
    },
    {
      "epoch": "2026-03-30T00:09:38.068704Z",
      "apogee_km": 540.400011972024,
      "perigee_km": 539.1188175560083,
      "latitude_deg": -6.063328657924577e-06,
      "longitude_deg": -106.90014407703367,
      "height_km": 540.6917270663354,
      "semi_major_axis_km": 6917.896414764015,
      "eccentricity": 9.26e-05,
      "inclination_deg": 53.2169,
      "raan_deg": 82.9131,
      "arg_perigee_deg": 93.2279,
      "mean_anomaly_deg": 266.8819,
      "mean_motion_rev_day": 15.08834757
    }
  ]
}